NORAD_CAT_ID,OBJECT_NAME,OBJECT_TYPE,EPOCH,MEAN_MOTION,ECCENTRICITY,INCLINATION,RA_OF_ASC_NODE,ARG_OF_PERICENTER,MEAN_ANOMALY,BSTAR,MEAN_MOTION_DOT,MEAN_MOTION_DDOT,TLE_LINE0,TLE_LINE1,TLE_LINE2,SEMIMAJOR_AXIS,PERIOD,APOGEE,PERIGEE,DECAYED
54201.0,STARLINK-5199,PAYLOAD,2023-10-18 11:50:37,15.08848244,0.0001651,53.2172,314.1329,97.7347,262.3833,0.00015764,2.222e-05,0.0,0 STARLINK-5199,1 54201U 22141AW  23291.49348852  .00002222  00000-0  15764-3 0  9996,2 54201  53.2172 314.1329 0001651  97.7347 262.3833 15.08848244 54175,6917.855,95.437,540.862,538.578,0.0
54201.0,STARLINK-5199,PAYLOAD,2023-10-19 06:55:15,15.08844036,0.0001612,53.2166,310.5646,91.4941,268.6236,8.015e-05,9.88e-06,0.0,0 STARLINK-5199,1 54201U 22141AW  23292.28837037  .00000988  00000-0  80150-4 0  9991,2 54201  53.2166 310.5646 0001612  91.4941 268.6236 15.08844036 54528,6917.868,95.437,540.848,538.618,0.0
54201.0,STARLINK-5199,PAYLOAD,2023-10-19 18:02:57,15.08845054,0.0001615,53.2166,308.4831,98.7322,261.3853,0.00013925,1.929e-05,0.0,0 STARLINK-5199,1 54201U 22141AW  23292.75204956  .00001929  00000-0  13925-3 0  9992,2 54201  53.2166 308.4831 0001615  98.7322 261.3853 15.08845054 54364,6917.865,95.437,540.847,538.613,0.0
54201.0,STARLINK-5199,PAYLOAD,2023-10-20 01:59:53,15.08837921,0.0001846,53.2177,306.9963,92.1289,267.9914,3.1815e-05,2.18e-06,0.0,0 STARLINK-5199,1 54201U 22141AW  23293.08325325  .00000218  00000-0  31815-4 0  9992,2 54201  53.2177 306.9963 0001846  92.1289 267.9914 15.08837921 54646,6917.887,95.438,541.029,538.475,0.0
54201.0,STARLINK-5199,PAYLOAD,2023-10-20 08:21:25,15.08841091,0.0001742,53.2176,305.8075,92.5851,267.534,6.6243e-05,7.66e-06,0.0,0 STARLINK-5199,1 54201U 22141AW  23293.34821221  .00000766  00000-0  66243-4 0  9998,2 54201  53.2176 305.8075 0001742  92.5851 267.5340 15.08841091 54452,6917.877,95.437,540.947,538.537,0.0
54201.0,STARLINK-5199,PAYLOAD,2023-10-21 08:12:13,15.08835042,0.0001676,53.2171,301.3465,90.4924,269.626,2.4098e-05,9.5e-07,0.0,0 STARLINK-5199,1 54201U 22141AW  23294.34181856  .00000095  00000-0  24098-4 0  9999,2 54201  53.2171 301.3465 0001676  90.4924 269.6260 15.08835042 54830,6917.896,95.438,540.92,538.601,0.0
54201.0,STARLINK-5199,PAYLOAD,2023-10-21 17:44:31,15.08840817,0.0001623,53.2177,299.5621,90.0842,270.0336,9.2923e-05,1.191e-05,0.0,0 STARLINK-5199,1 54201U 22141AW  23294.73925753  .00001191  00000-0  92923-4 0  9994,2 54201  53.2177 299.5621 0001623  90.0842 270.0336 15.08840817 54662,6917.878,95.438,540.866,538.62,0.0
54201.0,STARLINK-5199,PAYLOAD,2023-10-22 09:38:22,15.08855893,0.0001491,53.2166,296.5882,92.9027,267.2136,0.00034226,5.166e-05,0.0,0 STARLINK-5199,1 54201U 22141AW  23295.40164797  .00005166  00000-0  34226-3 0  9999,2 54201  53.2166 296.5882 0001491  92.9027 267.2136 15.08855893 54997,6917.832,95.437,540.728,538.665,0.0
54201.0,STARLINK-5199,PAYLOAD,2023-10-22 17:35:18,15.08839882,0.0001574,53.2174,295.1022,93.9757,266.1416,0.00013026,1.786e-05,0.0,0 STARLINK-5199,1 54201U 22141AW  23295.73285616  .00001786  00000-0  13026-3 0  9998,2 54201  53.2174 295.1022 0001574  93.9757 266.1416 15.08839882 55046,6917.881,95.438,540.835,538.657,0.0
54201.0,STARLINK-5199,PAYLOAD,2023-10-23 17:26:05,15.08839511,0.0001665,53.2164,290.6408,103.5642,256.5536,7.0531e-05,8.35e-06,0.0,0 STARLINK-5199,1 54201U 22141AW  23296.72645794  .00000835  00000-0  70531-4 0  9994,2 54201  53.2164 290.6408 0001665 103.5642 256.5536 15.08839511 54960,6917.882,95.438,540.899,538.595,0.0
54201.0,STARLINK-5199,PAYLOAD,2023-10-24 04:33:47,15.08847795,0.0001582,53.2159,288.5592,103.2012,256.9157,0.00022793,3.342e-05,0.0,0 STARLINK-5199,1 54201U 22141AW  23297.19013464  .00003342  00000-0  22793-3 0  9991,2 54201  53.2159 288.5592 0001582 103.2012 256.9157 15.08847795 55260,6917.857,95.437,540.816,538.627,0.0
54201.0,STARLINK-5199,PAYLOAD,2023-10-24 09:19:56,15.08850123,0.000167,53.2167,287.6663,107.1965,252.921,0.00024832,3.667e-05,0.0,0 STARLINK-5199,1 54201U 22141AW  23297.38885325  .00003667  00000-0  24832-3 0  9991,2 54201  53.2167 287.6663 0001670 107.1965 252.9210 15.08850123 55069,6917.849,95.437,540.87,538.559,0.0
54201.0,STARLINK-5199,PAYLOAD,2023-10-25 09:10:44,15.08841279,0.0001656,53.2163,283.2071,94.5575,265.5606,0.00016597,2.354e-05,0.0,0 STARLINK-5199,1 54201U 22141AW  23298.38245932  .00002354  00000-0  16597-3 0  9997,2 54201  53.2163 283.2071 0001656  94.5575 265.5606 15.08841279 55443,6917.876,95.437,540.887,538.596,0.0
54201.0,STARLINK-5199,PAYLOAD,2023-10-26 09:01:31,15.08849719,0.0001573,53.2162,278.7458,97.5715,262.5456,0.00018943,2.729e-05,0.0,0 STARLINK-5199,1 54201U 22141AW  23299.37605496  .00002729  00000-0  18943-3 0  9995,2 54201  53.2162 278.7458 0001573  97.5715 262.5456 15.08849719 55365,6917.851,95.437,540.804,538.628,0.0
54201.0,STARLINK-5199,PAYLOAD,2023-10-26 15:23:03,15.0884589,0.0001377,53.2156,277.5545,89.8775,270.2375,0.00013103,1.798e-05,0.0,0 STARLINK-5199,1 54201U 22141AW  23299.64101582  .00001798  00000-0  13103-3 0  9990,2 54201  53.2156 277.5545 0001377  89.8775 270.2375 15.08845890 55636,6917.862,95.437,540.68,538.775,0.0
54201.0,STARLINK-5199,PAYLOAD,2023-10-27 08:52:18,15.0885055,0.0001544,53.2171,274.2862,94.0871,266.0298,0.00020415,2.963e-05,0.0,0 STARLINK-5199,1 54201U 22141AW  23300.36965287  .00002963  00000-0  20415-3 0  9991,2 54201  53.2171 274.2862 0001544  94.0871 266.0298 15.08850550 55513,6917.848,95.437,540.781,538.645,0.0
54201.0,STARLINK-5199,PAYLOAD,2023-10-27 15:13:50,15.08844712,0.0001299,53.2157,273.0936,76.2917,283.822,0.00013252,1.822e-05,0.0,0 STARLINK-5199,1 54201U 22141AW  23300.63461542  .00001822  00000-0  13252-3 0  9990,2 54201  53.2157 273.0936 0001299  76.2917 283.8220 15.08844712 55780,6917.866,95.437,540.63,538.832,0.0
54201.0,STARLINK-5199,PAYLOAD,2023-10-27 21:35:23,15.08837014,0.0001996,53.2175,271.9077,87.3527,272.7693,3.7399e-05,3.07e-06,0.0,0 STARLINK-5199,1 54201U 22141AW  23300.89958210  .00000307  00000-0  37399-4 0  9997,2 54201  53.2175 271.9077 0001996  87.3527 272.7693 15.08837014 55594,6917.89,95.438,541.135,538.374,0.0
54201.0,STARLINK-5199,PAYLOAD,2023-10-28 05:32:19,15.0883477,0.0001762,53.218,270.422,89.4829,270.6365,-9.0059e-05,-1.721e-05,0.0,0 STARLINK-5199,1 54201U 22141AW  23301.23078426 -.00001721  00000-0 -90059-4 0  9993,2 54201  53.2180 270.4220 0001762  89.4829 270.6365 15.08834770 55648,6917.896,95.438,540.98,538.542,0.0
54201.0,STARLINK-5199,PAYLOAD,2023-10-28 21:26:11,15.08841238,0.0001534,53.2174,267.4472,87.8073,272.3095,0.00015607,2.197e-05,0.0,0 STARLINK-5199,1 54201U 22141AW  23301.89318297  .00002197  00000-0  15607-3 0  9999,2 54201  53.2174 267.4472 0001534  87.8073 272.3095 15.08841238 55743,6917.877,95.437,540.803,538.68,0.0
54201.0,STARLINK-5199,PAYLOAD,2023-10-29 03:47:43,15.08850908,0.0001595,53.2168,266.258,91.5422,268.5753,0.00033476,5.045e-05,0.0,0 STARLINK-5199,1 54201U 22141AW  23302.15813940  .00005045  00000-0  33476-3 0  9993,2 54201  53.2168 266.2580 0001595  91.5422 268.5753 15.08850908 56013,6917.847,95.437,540.815,538.609,0.0
54201.0,STARLINK-5199,PAYLOAD,2023-10-29 05:23:06,15.08854268,0.0001617,53.2171,265.9606,89.7791,270.3387,0.00054351,8.376e-05,0.0,0 STARLINK-5199,1 54201U 22141AW  23302.22437944  .00008376  00000-0  54351-3 0  9992,2 54201  53.2171 265.9606 0001617  89.7791 270.3387 15.08854268 55796,6917.837,95.437,540.82,538.583,0.0
54201.0,STARLINK-5199,PAYLOAD,2023-10-29 21:16:58,15.08844188,0.0001756,53.2183,262.9885,84.8819,275.2374,0.00028977,4.327e-05,0.0,0 STARLINK-5199,1 54201U 22141AW  23302.88678446  .00004327  00000-0  28977-3 0  9995,2 54201  53.2183 262.9885 0001756  84.8819 275.2374 15.08844188 55897,6917.868,95.437,540.947,538.518,0.0
54201.0,STARLINK-5199,PAYLOAD,2023-10-30 03:38:30,15.08847166,0.0001657,53.2172,261.7967,94.0955,266.0226,0.00036873,5.586e-05,0.0,0 STARLINK-5199,1 54201U 22141AW  23303.15174356  .00005586  00000-0  36873-3 0  9999,2 54201  53.2172 261.7967 0001657  94.0955 266.0226 15.08847166 56161,6917.858,95.437,540.87,538.577,0.0
54201.0,STARLINK-5199,PAYLOAD,2023-10-30 14:46:12,15.08838081,0.0001551,53.2167,259.7154,90.3428,269.7742,0.00025926,3.84e-05,0.0,0 STARLINK-5199,1 54201U 22141AW  23303.61542590  .00003840  00000-0  25926-3 0  9997,2 54201  53.2167 259.7154 0001551  90.3428 269.7742 15.08838081 56234,6917.886,95.438,540.824,538.678,0.0
54201.0,STARLINK-5199,PAYLOAD,2023-10-31 14:37:00,15.08839475,0.0001606,53.2185,255.2531,91.4264,268.6912,0.00025437,3.763e-05,0.0,0 STARLINK-5199,1 54201U 22141AW  23304.60902923  .00003763  00000-0  25437-3 0  9998,2 54201  53.2185 255.2531 0001606  91.4264 268.6912 15.08839475 56151,6917.882,95.438,540.858,538.636,0.0
54201.0,STARLINK-5199,PAYLOAD,2023-11-01 06:30:51,15.08850166,0.0001704,53.2177,252.2793,95.082,265.0366,0.00033481,5.046e-05,0.0,0 STARLINK-5199,1 54201U 22141AW  23305.27142636  .00005046  00000-0  33481-3 0  9993,2 54201  53.2177 252.2793 0001704  95.0820 265.0366 15.08850166 56251,6917.849,95.437,540.893,538.536,0.0
54201.0,STARLINK-5199,PAYLOAD,2023-11-02 03:10:51,15.08850818,0.0001347,53.2175,248.415,96.0623,264.0523,0.00025356,3.751e-05,0.0,0 STARLINK-5199,1 54201U 22141AW  23306.13254459  .00003751  00000-0  25356-3 0  9999,2 54201  53.2175 248.4150 0001347  96.0623 264.0523 15.08850818 56616,6917.847,95.437,540.644,538.78,0.0
54201.0,STARLINK-5199,PAYLOAD,2023-11-02 06:21:38,15.08855404,0.0001369,53.2169,247.8185,96.0111,264.1037,0.00042948,6.557e-05,0.0,0 STARLINK-5199,1 54201U 22141AW  23306.26502384  .00006557  00000-0  42948-3 0  9999,2 54201  53.2169 247.8185 0001369  96.0111 264.1037 15.08855404 56400,6917.833,95.437,540.645,538.751,0.0
54201.0,STARLINK-5199,PAYLOAD,2023-11-03 03:01:38,15.08843437,0.0001337,53.2168,243.9493,85.7991,274.3154,0.00013206,1.815e-05,0.0,0 STARLINK-5199,1 54201U 22141AW  23307.12614554  .00001815  00000-0  13206-3 0  9995,2 54201  53.2168 243.9493 0001337  85.7991 274.3154 15.08843437 56769,6917.87,95.437,540.66,538.81,0.0
